,address,description,hawker_name,hawker_photo_url,hawker_gmaps_url,hawker_status,longitude,latitude,hawker_coords,q1_start,q1_end,q2_start,q2_end,q3_start,q3_end,q4_start,q4_end
0,"2, Adam Road, Singapore 289876","Built in 1974, Adam Food Centre comprises 32 cooked food stalls.  Although small in size, the hawker centre has a huge reputation.  Popular food offered in the centre includes BBQ Seafood, Nasi Lemak, Prawn Noodles etc.",Adam Road Food Centre,http://www.nea.gov.sg/images/default-source/Hawker-Centres-Division/resize_1267437914368.jpg,https://www.google.com/maps/search/?api=1&query=Adam+Road+Food+Centre,Existing,103.8141632,1.324131966,"(1.324131966, 103.8141632)",8/3/2021,8/3/2021,7/6/2021,7/6/2021,6/9/2021,6/9/2021,6/12/2021,7/12/2021
1,"Blk 117, Aljunied Ave 2, Singapore 380117","Next to Geylang East Swimming Complex and other amenities, the hawker centre caters to the marketing and dining needs of the residents at Geylang East. The centre was built in 1978 and comprises 79 cooked food stalls and 82 market stalls.",Aljunied Ave 2 Blk 117 (Blk 117 Aljunied Market and Food Centre),http://www.nea.gov.sg/images/default-source/Hawker-Centres-Division/resize_1262154437879.jpg,https://www.google.com/maps/search/?api=1&query=Aljunied+Ave+2+Blk+117+(Blk+117+Aljunied+Market+and+Food+Centre),Existing,103.8870926,1.320709944,"(1.320709944, 103.8870926)",15/3/2021,16/3/2021,21/6/2021,22/6/2021,13/9/2021,16/9/2021,13/12/2021,14/12/2021
2,"National Development Building, Annex B, Telok Ayer Street, Singapore 069111","Built in 1983, the two-storey food centre is located within the central business district.  Housing many well-known stalls, the centre has evolved into a favourite lunch venue for executives working near Shenton Way. Be spoilt by the choice of hawker fare at affordable prices!",Amoy Street Food Centre (Telok Ayer Food Centre),http://www.nea.gov.sg/images/default-source/Hawker-Centres-Division/resize_1265968760190.jpg,https://www.google.com/maps/search/?api=1&query=Amoy+Street+Food+Centre+(Telok+Ayer+Food+Centre),Existing,103.8469849,1.279129028,"(1.279129028, 103.8469849)",6/3/2021,6/3/2021,5/6/2021,5/6/2021,4/9/2021,4/9/2021,4/12/2021,4/12/2021
3,"Blk 226D, Ang Mo Kio Ave 1, Singapore 564226","Located next to a food centre, the hawker centre at Block 226D Ang Mo Kio Ave 1 serves the marketing and dining needs of residents living in the Kebun Baru area. The centre was upgraded in 2010 and consists predominantly of market stalls.",Ang Mo Kio Ave 1 Blk 226D (Kebun Baru Market and Food Centre),http://www.nea.gov.sg/images/default-source/Hawker-Centres-Division/resize_1262154827180.jpg,https://www.google.com/maps/search/?api=1&query=Ang+Mo+Kio+Ave+1+Blk+226D+(Kebun+Baru+Market+and+Food+Centre),Existing,103.8391876,1.366950035,"(1.366950035, 103.8391876)",15/3/2021,17/3/2021,21/6/2021,21/6/2021,13/9/2021,13/9/2021,13/12/2021,13/12/2021
4,"Blk 29, Bendemeer Road, Singapore 330029","Just a few minutes away from Boon Keng MRT station, the hawker centre is very popular with the nearby residents as well as the workers at Kallang Bahru Industrial Estate because of its location and affordable local cuisines.",Bendemeer Road Blk 29 (Bendemeer Market and Food Centre),http://www.nea.gov.sg/images/default-source/Hawker-Centres-Division/resize_1262226446535.jpg,https://www.google.com/maps/search/?api=1&query=Bendemeer+Road+Blk+29+(Bendemeer+Market+and+Food+Centre),Existing,103.8630905,1.319280028,"(1.319280028, 103.8630905)",1/3/2021,2/3/2021,17/5/2021,18/5/2021,16/8/2021,17/8/2021,15/11/2021,17/11/2021
5,"Blk 341, Ang Mo Kio Ave 1, Singapore 560341","Located in the heart of Teck Ghee estate and opposite Bishan Park, the 32 cooked food stalls and 86 market stalls within the hawker centre remain a popular choice among patrons despite the availability of alternative marketing and dining facilities nearby.  Popular local dishes are whipped up daily to satisfy patrons' desires for good food!",Ang Mo Kio Ave 1 Blk 341 (Teck Ghee Court),http://www.nea.gov.sg/images/default-source/Hawker-Centres-Division/resize_1275538105392.jpg,https://www.google.com/maps/search/?api=1&query=Ang+Mo+Kio+Ave+1+Blk+341+(Teck+Ghee+Court),Existing,103.84832,1.364169955,"(1.364169955, 103.84832)",1/2/2021,2/2/2021,3/5/2021,4/5/2021,16/8/2021,17/8/2021,8/11/2021,10/11/2021
6,"Blk 409, Ang Mo Kio Ave 10, Singapore 560409","Also known as Teck Ghee Square, it is one of the three hawker centres that are situated along Ang Mo Kio Ave 10. Built in 1979, the hawker centre comprises 40 cooked food stalls and 148 market stalls.",Ang Mo Kio Ave 10 Blk 409 (Teck Ghee Square),http://www.nea.gov.sg/images/default-source/Hawker-Centres-Division/resize_1275538704472.jpg,https://www.google.com/maps/search/?api=1&query=Ang+Mo+Kio+Ave+10+Blk+409+(Teck+Ghee+Square),Existing,103.8553772,1.362730026,"(1.362730026, 103.8553772)",15/3/2021,16/3/2021,5/7/2021,6/7/2021,13/9/2021,14/9/2021,13/12/2021,15/12/2021
7,"Blk 453A, Ang Mo Kio Ave 10, Singapore 561453","Built in 1979, the hawker centre at Blk 453A Ang Mo Kio Ave 10 consists of 38 cooked food stalls and 184 market stalls.",Ang Mo Kio Ave 10 Blk 453A (Chong Boon Market and Food Centre),http://www.nea.gov.sg/images/default-source/Hawker-Centres-Division/resize_1259902043777.jpg,https://www.google.com/maps/search/?api=1&query=Ang+Mo+Kio+Ave+10+Blk+453A+(Chong+Boon+Market+and+Food+Centre),Existing,103.8564377,1.368299961,"(1.368299961, 103.8564377)",22/2/2021,23/2/2021,17/5/2021,18/5/2021,30/8/2021,31/8/2021,22/11/2021,24/11/2021
8,"Blk 527, Ang Mo Kio Ave 10, Singapore 560527","Commonly known as Cheng San Market and Cooked Food Centre, Blk 527 Ang Mo Kio Ave 10 is one of the three hawker centres located along Ang Mo Kio Ave 10. The hawker centre was built in 1979 to serve the dining and marketing needs of nearby residents. Upgraded in 2004, it houses 50 cooked food stalls and 100 market stalls.",Ang Mo Kio Ave 10 Blk 527 (Cheng San Market and Cooked Food Centre),http://www.nea.gov.sg/images/default-source/Hawker-Centres-Division/resize_1265165592824.jpg,https://www.google.com/maps/search/?api=1&query=Ang+Mo+Kio+Ave+10+Blk+527+(Cheng+San+Market+and+Cooked+Food+Centre),Existing,103.8544464,1.37270999,"(1.37270999, 103.8544464)",22/3/2021,23/3/2021,28/6/2021,29/6/2021,27/9/2021,28/9/2021,6/12/2021,8/12/2021
9,"Blk 160/162, Ang Mo Kio Ave 4, Singapore 560160/560162","Commonly known as Mayflower Market, the hawker centre was built in 1981. It comprises 40 cooked food stalls and 84 market stalls to serve the marketing and dining needs of residents.",Ang Mo Kio Ave 4 Blk 160/162 (Mayflower Market),http://www.nea.gov.sg/images/default-source/Hawker-Centres-Division/resize_1265165416622.jpg,https://www.google.com/maps/search/?api=1&query=Ang+Mo+Kio+Ave+4+Blk+160/162+(Mayflower+Market),Existing,103.839241,1.374600053,"(1.374600053, 103.839241)",8/3/2021,8/3/2021,7/6/2021,7/6/2021,27/9/2021,27/9/2021,20/12/2021,22/12/2021
10,"Blk 628, Ang Mo Kio Ave 4, Singapore 560628","Originally built in 1979, the hawker centre is located opposite Yio Chu Kang CC and near schools, temples and residential flats.   After the upgrading in 2010, the rebuilt centre consists of  52 cooked food stalls and 166 market stalls to serve the marketingand dining needs of patrons.",Ang Mo Kio Ave 4 Blk 628 (Ang Mo Kio 628 Market),http://www.nea.gov.sg/images/default-source/Hawker-Centres-Division/blk-628-ang-mo-kio-ave-4.jpg,https://www.google.com/maps/search/?api=1&query=Ang+Mo+Kio+Ave+4+Blk+628+(Ang+Mo+Kio+628+Market),Existing,103.8407516,1.38066268,"(1.38066268, 103.8407516)",22/3/2021,24/3/2021,28/6/2021,30/6/2021,27/9/2021,29/9/2021,6/12/2021,10/12/2021
11,"Blk 724, Ang Mo Kio Ave 6, Singapore 560724","Located conveniently in the heart of the bustling Ang Mo Kio Town Centre, the hawker centre is always packed with patrons, especially during the weekends.  Be prepared to queue for your favourite food at popular stalls!",Ang Mo Kio Ave 6 Blk 724 (Blk 724 Ang Mo Kio Market),http://www.nea.gov.sg/images/default-source/Hawker-Centres-Division/resize_1262155216756.jpg,https://www.google.com/maps/search/?api=1&query=Ang+Mo+Kio+Ave+6+Blk+724+(Blk+724+Ang+Mo+Kio+Market),Existing,103.8464966,1.372040033,"(1.372040033, 103.8464966)",15/3/2021,16/3/2021,21/6/2021,22/6/2021,30/8/2021,31/8/2021,27/12/2021,28/12/2021
12,"Blk 226H, Ang Mo Kio Street 22, Singapore 568226","Commonly known as Kebun Bahru Food Centre, the food centre was built in 1976 to serve the dining needs of Kebun Baru residents. Comprises 29 cooked food stalls.",Ang Mo Kio Street 22 Blk 226H (Kebun Baru Food Centre),http://www.nea.gov.sg/images/default-source/Hawker-Centres-Division/resize_1259901689557.jpg,https://www.google.com/maps/search/?api=1&query=Ang+Mo+Kio+Street+22+Blk+226H+(Kebun+Baru+Food+Centre),Existing,103.8399429,1.367266059,"(1.367266059, 103.8399429)",15/3/2021,17/3/2021,21/6/2021,21/6/2021,13/9/2021,13/9/2021,13/12/2021,13/12/2021
13,"1, Bedok Road, Singapore 469572","Located at the corner of Upper East Coast Road, Bedok Food Centre is a favourite haunt for residents in the vicinity and army personnel from nearby barracks. Upgraded in 2005, the fa?ade resembles that of an old Malay ""kampong"" house. Famous for hawker fare such as Hokkien Mee, Desserts, Malay Dishes and more, the hawker centre houses 32 cooked food stalls.",Bedok Food Centre,http://www.nea.gov.sg/images/default-source/Hawker-Centres-Division/resize_1265176030572.jpg,https://www.google.com/maps/search/?api=1&query=Bedok+Food+Centre,Existing,103.9554749,1.320353031,"(1.320353031, 103.9554749)",22/3/2021,22/3/2021,14/6/2021,15/6/2021,20/9/2021,20/9/2021,13/12/2021,15/12/2021
14,"Blk 216, Bedok North Street 1, Singapore 460216","Built in 1979, the hawker centre at Blk 216 Bedok North Street 1 comprises 82 cooked food stalls and 114 market stalls. A stone's throw away from Bedok Town Centre.",Bedok North Street 1 Blk 216,http://www.nea.gov.sg/images/default-source/Hawker-Centres-Division/resize_1262154705733.jpg,https://www.google.com/maps/search/?api=1&query=Bedok+North+Street+1+Blk+216,Existing,103.9332962,1.327119946,"(1.327119946, 103.9332962)",1/3/2021,1/3/2021,6/6/2021,6/6/2021,5/9/2021,5/9/2021,30/11/2021,4/12/2021
15,"Blk 511, Bedok North Street 3, Singapore 460511","Built in 1979, the hawker centre at Blk 511 Bedok North Street 3 comprises 42 cooked food stalls and 83 market stalls to serve both the dining and marketing needs of residents living in the Kaki Bukit area. Be pampered by the wide selection of hawker fare!  Crowded during dinner and supper hours.",Bedok North Street 3 Blk 511 (Kaki Bukit 511 Market and Food Centre),http://www.nea.gov.sg/images/default-source/Hawker-Centres-Division/resize_1265166047112.jpg,https://www.google.com/maps/search/?api=1&query=Bedok+North+Street+3+Blk+511+(Kaki+Bukit+511+Market+and+Food+Centre),Existing,103.930687,1.333310008,"(1.333310008, 103.930687)",22/3/2021,22/3/2021,28/6/2021,2/7/2021,27/9/2021,27/9/2021,6/12/2021,6/12/2021
16,"Blk 538, Bedok North Street 3, Singapore 460538","Built in 1979, the hawker centre at Blk 538 Bedok North Street 3 comprises 42 cooked food stalls and 134 market stalls. One of the popular hawker centres in the Bedok area.",Bedok North Street 3 Blk 538,http://www.nea.gov.sg/images/default-source/Hawker-Centres-Division/resize_1262227194623.jpg,https://www.google.com/maps/search/?api=1&query=Bedok+North+Street+3+Blk+538,Existing,103.9247208,1.332100034,"(1.332100034, 103.9247208)",15/3/2021,15/3/2021,31/5/2021,4/6/2021,13/9/2021,13/9/2021,13/12/2021,13/12/2021
17,"Blk 85, Bedok North Street 4, Singapore 460085","A popular supper destination for night owls from all over the island.  The hawker centre features a wide array of hawker fare such as Bak Chor Mee, Porridge, BBQ Chicken Wings and Seafood, Fried Oysters etc.  Definitely a favourite haunt for the sleepless!",Bedok North Street 4 Blk 85 (85 Fengshan Centre),http://www.nea.gov.sg/images/default-source/Hawker-Centres-Division/resize_1267853253145.jpg,https://www.google.com/maps/search/?api=1&query=Bedok+North+Street+4+Blk+85+(85+Fengshan+Centre),Existing,103.9388123,1.332059979,"(1.332059979, 103.9388123)",18/1/2021,19/1/2021,3/5/2021,4/5/2021,2/8/2021,3/8/2021,22/11/2021,26/11/2021
18,"Blk 630, Bedok Reservoir Road, Singapore 470630","Located within walking distance from the Eunos Community Club, the centre is a convenient place which meets the dining and marketing needs of residents living at Bedok Reservoir Road. Upgraded in 2006, it houses 36 cooked food stalls and 75 market stalls.",Bedok Reservoir Road Blk 630,http://www.nea.gov.sg/images/default-source/Hawker-Centres-Division/resize_1262155176127.jpg,https://www.google.com/maps/search/?api=1&query=Bedok+Reservoir+Road+Blk+630,Existing,103.9142075,1.332980037,"(1.332980037, 103.9142075)",8/3/2021,8/3/2021,21/6/2021,21/6/2021,27/9/2021,1/10/2021,6/12/2021,6/12/2021
19,"Blk 16, Bedok South Road, Singapore 460016","Located near schools, factories and housing estates in the Bedok South area, this hawker centre is an accessible hotspot for patrons looking for an economical meal.",Bedok South Road Blk 16,http://www.nea.gov.sg/images/default-source/Hawker-Centres-Division/resize_1267853021378.jpg,https://www.google.com/maps/search/?api=1&query=Bedok+South+Road+Blk+16,Existing,103.9355469,1.320559978,"(1.320559978, 103.9355469)",15/3/2021,15/3/2021,17/5/2021,17/5/2021,12/7/2021,12/7/2021,8/11/2021,10/11/2021
20,"38A, Beo Crescent, Singapore 169982","Located near to Tiong Bahru MRT station and PSB Academy, Beo Crescent Market/Food Centre was built in 1965.  The centre serves the mature estate of Havelock and Tiong Bahru area.",Beo Crescent Market,http://www.nea.gov.sg/images/default-source/Hawker-Centres-Division/resize_1267807628554.jpg,https://www.google.com/maps/search/?api=1&query=Beo+Crescent+Market,Existing,103.8272476,1.28848803,"(1.28848803, 103.8272476)",15/3/2021,15/3/2021,7/6/2021,7/6/2021,13/9/2021,15/9/2021,6/12/2021,6/12/2021
21,"166, Jalan Besar, Singapore 208877","Located along Jalan Besar Road, Berseh Food Centre houses 66 cooked food stalls. Built in 1975, the food centre presents an added nostalgic flavour with the rows of meticulously restored pre-war shophouses surrounding it.",Berseh Food Centre,http://www.nea.gov.sg/images/default-source/Hawker-Centres-Division/resize_1265176120532.jpg,https://www.google.com/maps/search/?api=1&query=Berseh+Food+Centre,Existing,103.8568497,1.307335019,"(1.307335019, 103.8568497)",29/3/2021,29/3/2021,28/6/2021,28/6/2021,27/9/2021,27/9/2021,27/12/2021,28/12/2021
22,"Blk 221A/B, Boon Lay Place, Singapore 641221/642221","Located beside Boon Lay Shopping Centre, the hawker centre at Blk 221A/B Boon Lay Place provides marketing and dining amenities for residents living in Boon Lay. Built in 1976, the centre comprises 72 cooked food stalls and 94 market stalls.",Boon Lay Place Blk 221A/B (Boon Lay Place Market and Food Village),http://www.nea.gov.sg/images/default-source/Hawker-Centres-Division/resize_1262154766447.jpg,https://www.google.com/maps/search/?api=1&query=Boon+Lay+Place+Blk+221A/B+(Boon+Lay+Place+Market+and+Food+Village),Existing,103.7128525,1.345280051,"(1.345280051, 103.7128525)",5/4/2021,6/4/2021,21/6/2021,22/6/2021,6/9/2021,9/9/2021,29/11/2021,30/11/2021
23,"Blk 665, Buffalo Road, Singapore 210665","More commonly known as Tekka Centre, the hawker centre is a popular haunt for marketing and dining needs, especially with the Indian community. An amazing variety of fresh produce is sold at the market.  Built in 1980, it is the second largest hawker centre in Singapore housing more than 400 stalls. An iconic landmark in the Little India area!",Buffalo Road Blk 665 (Tekka Centre/Zhu Jiao Market),http://www.nea.gov.sg/images/default-source/Hawker-Centres-Division/resize_1262156313186.jpg,https://www.google.com/maps/search/?api=1&query=Buffalo+Road+Blk+665+(Tekka+Centre/Zhu+Jiao+Market),Existing,103.8506699,1.306190014,"(1.306190014, 103.8506699)",15/3/2021,17/3/2021,21/6/2021,22/6/2021,13/9/2021,14/9/2021,6/12/2021,7/12/2021
24,"51 Hougang Avenue 9, Singapore 538776","Built in 2015, Ci Yuan hawker centre is the first to be built since 1985. The hawker centre is located at the 1st storey of Ci Yuan Community Club and comprises of 40 cooked food stalls. All the stalls are selling different food items and serving at least two items priced at $2.80 or below to ensure food price affordability. Ci Yuan hawker centre also has new facilities to accommodate the needs of different users to create a more pleasant dining experience for all.  These include family-friendly facilities such as child-friendly seating, point-of-sale system and self-payment kiosks.  For more information, please refer to: http://ciyuanhawker.com.sg/",Ci Yuan Hawker Centre,http://www.nea.gov.sg/images/default-source/Hawker-Centres-Division/ci-yuan-hawker-centre.jpg,https://www.google.com/maps/search/?api=1&query=Ci+Yuan+Hawker+Centre,Existing (new),103.8829472,1.3749377,"(1.3749377, 103.8829472)",1/3/2021,1/3/2021,31/5/2021,31/5/2021,30/8/2021,30/8/2021,29/11/2021,29/11/2021
25,"Blk 163, Bukit Merah Central, Singapore 150163","Located in the heart of Bukit Merah Central, the food centre consists of 57 cooked food stalls. Extremely well liked by office executives working in the vicinity, the centre bustles with activity during lunch hours. Popular dishes include Ngoh Hiang, Chicken Rice, Teochew Porridge, Fish Soup, Char Kway Teow and Goreng Pisang. Be prepared to be spoilt for choice!",Bukit Merah Central Blk 163 (Bukit Merah Central Food Centre),http://www.nea.gov.sg/images/default-source/Hawker-Centres-Division/resize_1267851995788.jpg,https://www.google.com/maps/search/?api=1&query=Bukit+Merah+Central+Blk+163+(Bukit+Merah+Central+Food+Centre),Existing,103.8171082,1.283740044,"(1.283740044, 103.8171082)",27/3/2021,28/3/2021,19/6/2021,20/6/2021,25/9/2021,26/9/2021,18/12/2021,19/12/2021
26,"Blk 120, Bukit Merah Lane, Singapore 150120","Opposite the Queenstown Shopping Centre, the hawker centre, also commonly known as Alexandra Food Village, is home to a number of ""yummylicious"" local dishes such as Chicken Rice, Claypot Laksa, Bak Ku Teh etc.",Bukit Merah Lane 1 Blk 120 (Alexandra Village Food Centre),http://www.nea.gov.sg/images/default-source/Hawker-Centres-Division/resize_1267852344747.jpg,https://www.google.com/maps/search/?api=1&query=Bukit+Merah+Lane+1+Blk+120+(Alexandra+Village+Food+Centre),Existing,103.8045502,1.286360025,"(1.286360025, 103.8045502)",1/3/2021,1/3/2021,31/5/2021,31/5/2021,27/9/2021,27/9/2021,6/12/2021,6/12/2021
27,"Blk 115, Bukit Merah View, Singapore 151115","Built in 1973, the hawker centre comprises 84 cooked food stalls and 167 market produce stalls. Located in Henderson area and near to office buildings, schools and residential flats, it is one of the largest hawker centres in Bukit Merah.",Bukit Merah View Blk 115 (Blk 115 Bukit Merah View Market and Food Centre),http://www.nea.gov.sg/images/default-source/Hawker-Centres-Division/resize_1267851251303.jpg,https://www.google.com/maps/search/?api=1&query=Bukit+Merah+View+Blk+115+(Blk+115+Bukit+Merah+View+Market+and+Food+Centre),Existing,103.8223724,1.285240054,"(1.285240054, 103.8223724)",15/3/2021,16/3/2021,28/6/2021,29/6/2021,27/9/2021,28/9/2021,6/12/2021,8/12/2021
28,"2 Bukit Panjang Ring Road, Singapore 679947","Bukit Panjang Hawker Centre & Market is one of the 10 new centres announced by the Government. Among the 10 centres, it is the second to start operations, after the Hougang Ci Yuan Hawker Centre. Bukit Panjang Hawker Centre & Market has 28 cooked food stalls, 14 market slab stalls and 14 lock-up stalls located on both floors of the two-storeyed building.  It also has a sundry store on the second floor.",Bukit Panjang Hawker Centre,http://www.nea.gov.sg/images/default-source/Hawker-Centres-Division/bukit-panjang-hawker-centre.jpg,https://www.google.com/maps/search/?api=1&query=Bukit+Panjang+Hawker+Centre,Existing (new),103.772432,1.378269,"(1.378269, 103.772432)",8/3/2021,10/3/2021,7/6/2021,8/6/2021,6/9/2021,7/9/2021,6/12/2021,7/12/2021
29,"51, Upper Bukit Timah Road, Singapore 588215","Located along Upper Bukit Timah Road, the two-storey hawker centre was built in 1975 and was upgraded in 2003. A popular hawker centre serving the dining and marketing needs of residents living around Toh Yi Drive. Well-known for the variety of hawker fare, the centre is usually packed with patrons during peak hours. Comprises 84 cooked food stalls and 94 market stalls.",Bukit Timah Market,http://www.nea.gov.sg/images/default-source/Hawker-Centres-Division/resize_1265176195262.jpg,https://www.google.com/maps/search/?api=1&query=Bukit+Timah+Market,Existing,103.7758026,1.339645028,"(1.339645028, 103.7758026)",22/2/2021,22/2/2021,31/5/2021,2/6/2021,13/9/2021,13/9/2021,29/11/2021,29/11/2021
30,"Blk 41A, Cambridge Road, Singapore 211041","More commonly known as Pek Kio Market and Food Centre, the hawker centre was built in 1981 to serve residents staying nearby.  The centre was upgraded in 2003 and currently houses 50 cooked food stalls and 74 market stalls. Many stalls offer delicious yet suprisingly affordable dishes. Get ready for a gastronomic experience!",Cambridge Road Blk 41A (Pek Kio Market and Food Centre),http://www.nea.gov.sg/images/default-source/Hawker-Centres-Division/resize_1265166819326.jpg,https://www.google.com/maps/search/?api=1&query=Cambridge+Road+Blk+41A+(Pek+Kio+Market+and+Food+Centre),Existing,103.8503036,1.316200018,"(1.316200018, 103.8503036)",18/1/2021,18/1/2021,19/4/2021,19/4/2021,12/7/2021,13/7/2021,11/10/2021,11/10/2021
31,"Blk 2/3, Changi Village Road, Singapore 500002/500003","Located at the eastern end of Singapore near to Changi Point Ferry Terminal and Changi Beach, the popular hawker centre draws food lovers from all over the island. Be wowed by the great variety of  hawker fare available e.g. Nasi Lemak, BBQ Seafood, Fried Wan Ton Noodles etc.  Built in 1975, this centre comprises 87 cooked food stalls and 50 market stalls.",Changi Village Blk 2 and 3,http://www.nea.gov.sg/images/default-source/Hawker-Centres-Division/resize_1267846802175.jpg,https://www.google.com/maps/search/?api=1&query=Changi+Village+Blk+2+and+3,Existing,103.9881821,1.389719963,"(1.389719963, 103.9881821)",11/1/2021,13/1/2021,5/4/2021,7/4/2021,5/7/2021,7/7/2021,11/10/2021,15/10/2021
32,"20, Kensington Park Road, Singapore 557269","Located in Serangoon Gardens, Chomp Chomp Food Centre is well-known for its vibrant dinner and supper scene. Bustling with diners even till late at night, the 36 cooked food stalls in the small hawker centre serve popular local dishes such as Char Kway Teow, BBQ Chicken Wings, Seafood etc. This Centre attracts food lovers from all over the island.",Chomp Chomp Food Centre,http://www.nea.gov.sg/images/default-source/Hawker-Centres-Division/resize_1262155330191.jpg,https://www.google.com/maps/search/?api=1&query=Chomp+Chomp+Food+Centre,Existing,103.8665314,1.36422801,"(1.36422801, 103.8665314)",29/3/2021,31/3/2021,28/6/2021,28/6/2021,27/9/2021,29/9/2021,27/12/2021,27/12/2021
33,"Blk 79/79A, Circuit Road, Singapore 370079/371079","Built in 1971, the hawker centre is sited beside the Pelton Canal in Paya Lebar. One of the three hawker centres at Ciruit Road, the centre comprises 106 cooked food stalls. After upgrading in 2010, a new outdoor refreshment area has been added to provide a unique alfresco dining experience to patrons.",Circuit Road Blk 79/79A,http://www.nea.gov.sg/images/default-source/Hawker-Centres-Division/resize_1280824598.jpg,https://www.google.com/maps/search/?api=1&query=Circuit+Road+Blk+79/79A,Existing,103.8851166,1.326660037,"(1.326660037, 103.8851166)",8/3/2021,9/3/2021,28/6/2021,29/6/2021,20/9/2021,22/9/2021,27/12/2021,28/12/2021
34,"Blk 80, Circuit Road, Singapore 370080","Built in 1967, the hawker centre at Blk 80 Circuit Road comprises 16 cooked food stalls and 43 market stalls. One of the three hawker centres serving the residents living in the vicinity of Circuit Road.",Circuit Road Blk 80 (80 Circuit Road Market and Food Centre),http://www.nea.gov.sg/images/default-source/Hawker-Centres-Division/resize_1262153912521.jpg,https://www.google.com/maps/search/?api=1&query=Circuit+Road+Blk+80+(80+Circuit+Road+Market+and+Food+Centre),Existing,103.8871536,1.327900052,"(1.327900052, 103.8871536)",4/1/2021,4/1/2021,5/4/2021,5/4/2021,5/7/2021,7/7/2021,11/10/2021,11/10/2021
35,"Blk 89, Circuit Road, Singapore 370089","Built in 1967, the hawker centre at Blk 89 Circuit Road comprises 40 cooked food stalls and 93 market stalls. One of the three hawker centres serving the residents living in the vicinity of Circuit Road.",Circuit Road Blk 89,http://www.nea.gov.sg/images/default-source/Hawker-Centres-Division/resize_1262154127554.jpg,https://www.google.com/maps/search/?api=1&query=Circuit+Road+Blk+89,Existing,103.8855209,1.323639989,"(1.323639989, 103.8855209)",1/3/2021,1/3/2021,7/6/2021,7/6/2021,27/9/2021,28/9/2021,6/12/2021,6/12/2021
36,"Blk 353, Clementi Ave 2, Singapore 120353","Built in 1978, the hawker centre has evolved into a focal point for residents to dine and engage in social bonding. Blk 353 Clementi Ave 2 comprises 18 cooked food stalls and 96 market stalls.",Clementi Ave 2 Blk 353 (Clementi Ave 2 Market/Cooked Food Centre),http://www.nea.gov.sg/images/default-source/Hawker-Centres-Division/resize_1267847852167.jpg,https://www.google.com/maps/search/?api=1&query=Clementi+Ave+2+Blk+353+(Clementi+Ave+2+Market/Cooked+Food+Centre),Existing,103.7707748,1.314337969,"(1.314337969, 103.7707748)",1/3/2021,2/3/2021,17/5/2021,18/5/2021,2/8/2021,3/8/2021,15/11/2021,17/11/2021
37,"Blk 448, Clementi Ave 3, Singapore 120448","Located in the town centre of Clementi, the hawker centre at Blk 448 Clementi Ave 3 is within walking distance from Clementi MRT station and the bus interchange. Good food offerings and its strategic location make the centre popular with diners.",Clementi Ave 3 Blk 448,http://www.nea.gov.sg/images/default-source/Hawker-Centres-Division/resize_1267848308255.jpg,https://www.google.com/maps/search/?api=1&query=Clementi+Ave+3+Blk+448,Existing,103.7645874,1.313349962,"(1.313349962, 103.7645874)",29/3/2021,30/3/2021,28/6/2021,29/6/2021,27/9/2021,28/9/2021,27/12/2021,30/12/2021
38,"Blk 726, Clementi West Street 2, Singapore 120726","Built in 1980, the hawker centre at Blk 726 Clementi West Street 2 consists of 60 cooked food stalls and 135 market stalls. The centre is conveniently located in close proximity to schools, housing estates and shopping complex.",Clementi West Street 2 Blk 726,http://www.nea.gov.sg/images/default-source/Hawker-Centres-Division/resize_1262155262246.jpg,https://www.google.com/maps/search/?api=1&query=Clementi+West+Street+2+Blk+726,Existing,103.7641754,1.30391705,"(1.30391705, 103.7641754)",1/3/2021,2/3/2021,31/5/2021,3/6/2021,27/9/2021,28/9/2021,6/12/2021,7/12/2021
39,"31, Commonwealth Crescent, Singapore 149644",The 63 market stalls are located on the lower level while the 39 cooked food stalls are located on the upper level of this two-storey market. Built in 1965 to fulfill the marketing and dining needs of residents living in the mature estate of Commonwealth Drive.,Commonwealth Crescent Market,http://www.nea.gov.sg/images/default-source/Hawker-Centres-Division/resize_1265167388780.jpg,https://www.google.com/maps/search/?api=1&query=Commonwealth+Crescent+Market,Existing,103.7994614,1.307432055,"(1.307432055, 103.7994614)",22/2/2021,22/2/2021,17/5/2021,17/5/2021,16/8/2021,16/8/2021,22/11/2021,24/11/2021
40,"Blk 1A/ 2A/ 3A, Commonwealth Drive, Singapore 140001/140002/140003","Nestled within the established Tanglin Halt estate, the food centre was originally built in 1981. The three hexagonal blocks retain their unique shape after upgrading in 2009. A total of 40 cooked food stalls is housed within the centre.",Commonwealth Drive Blk 1A/2A/3A (Tanglin Halt Food Centre/Commonwealth Drive Food Centre),http://www.nea.gov.sg/images/default-source/Hawker-Centres-Division/commonwealth.jpg,https://www.google.com/maps/search/?api=1&query=Commonwealth+Drive+Blk+1A/2A/3A+(Tanglin+Halt+Food+Centre/Commonwealth+Drive+Food+Centre),Existing,103.7980194,1.299550056,"(1.299550056, 103.7980194)",29/3/2021,29/3/2021,28/6/2021,28/6/2021,14/1/1990,14/1/1990,14/1/1990,14/1/1990
41,"271, Onan Road, Singapore 424768","Built in 1974, Dunman Food Centre has since played a vital role in providing resonably-priced cuisines to the residents of Joo Chiat area. Upgraded in 2002, the centre comprises 30 cooked food stalls.",Dunman Food Centre,http://www.nea.gov.sg/images/default-source/Hawker-Centres-Division/resize_1262155459807.jpg,https://www.google.com/maps/search/?api=1&query=Dunman+Food+Centre,Existing,103.901825,1.309412003,"(1.309412003, 103.901825)",15/2/2021,16/2/2021,24/5/2021,24/5/2021,23/8/2021,23/8/2021,22/11/2021,22/11/2021
42,"1220, East Coast Parkway, Singapore 468960","Located in the south-eastern part of Singapore, the East Coast Lagoon Food Village offers a tropical resort ambience by the sea and a wide variety of local hawker food at reasonable prices. It is a favourite haunt among sports enthusiasts and families who wish to enjoy a sumptuous meal by the sea. Popular dishes include Satay, BBQ Seafood and Chicken Wings, Zi Char, Wan Ton Noodles, Satay Bee Hoon, Beef Noodles etc.  Rated as one of the food paradises in Singapore!",East Coast Lagoon Food Village,http://www.nea.gov.sg/images/default-source/Hawker-Centres-Division/resize_1262155504536.jpg,https://www.google.com/maps/search/?api=1&query=East+Coast+Lagoon+Food+Village,Existing,103.9343033,1.307729959,"(1.307729959, 103.9343033)",22/3/2021,22/3/2021,31/5/2021,1/6/2021,16/8/2021,16/8/2021,8/11/2021,10/11/2021
43,"Blk 7, Empress Road, Singapore 260007","Built in 1976, the hawker centre at Blk 7 Empress Road comprises 40 cooked food stalls and 72 market stalls. Provides marketing and dining facilities to residents of Farrer estate.",Empress Road Blk 7 (Empress Road Market and Food Centre),http://www.nea.gov.sg/images/default-source/Hawker-Centres-Division/resize_1262152572393.jpg,https://www.google.com/maps/search/?api=1&query=Empress+Road+Blk+7+(Empress+Road+Market+and+Food+Centre),Existing,103.805687,1.316310048,"(1.316310048, 103.805687)",15/3/2021,15/3/2021,21/6/2021,21/6/2021,27/9/2021,27/9/2021,29/11/2021,1/12/2021
44,"Blk 4A, Eunos Crescent, Singapore 402004",The hawker centre at Blk 4A Eunos Crescent is located within close proximity to the Eunos MRT station and bus interchange. Its strategic location coupled with a wide variety of food offerings results in high patronage especially during lunch and dinner hours.,Eunos Crescent Blk 4A,http://www.nea.gov.sg/images/default-source/Hawker-Centres-Division/resize_1267873497497.jpg,https://www.google.com/maps/search/?api=1&query=Eunos+Crescent+Blk+4A,Existing,103.9042206,1.320291996,"(1.320291996, 103.9042206)",22/3/2021,23/3/2021,31/5/2021,2/6/2021,13/9/2021,14/9/2021,27/12/2021,28/12/2021
45,"Blk 69, Geylang Bahru, Singapore 330069","Located near amenities such as swimming pool, industrial parks, commercial shops and residential estates, Blk 69 Geylang Bahru is a focal point where patrons get to enjoy local hawker fare at affordable prices. The hawker centre was built in 1974 and houses 84 cooked food stalls cum 127 market stalls.",Geylang Bahru Blk 69 (Blk 69 Geylang Bahru Market and Food Centre),http://www.nea.gov.sg/images/default-source/Hawker-Centres-Division/blk-69-geylang-bahru.jpg,https://www.google.com/maps/search/?api=1&query=Geylang+Bahru+Blk+69+(Blk+69+Geylang+Bahru+Market+and+Food+Centre),Existing,103.8700714,1.321529984,"(1.321529984, 103.8700714)",15/3/2021,16/3/2021,31/5/2021,1/6/2021,13/9/2021,14/9/2021,6/12/2021,8/12/2021
46,"1, Geylang Serai, Singapore 402001","One of the most popular hawker centres in Singapore, especially with the Malay community! The hawker centre was upgraded in 2009 and currently comprises 63 cooked food stalls and 302 market stalls. Its design, which was conceived after close consultations with grassroots and stallholders, is reminiscent of rural Malay architecture. It is the third biggest hawker centre in Singapore based on stall count.",Geylang Serai Market,http://www.nea.gov.sg/images/default-source/Hawker-Centres-Division/resize_1262155542468.jpg,https://www.google.com/maps/search/?api=1&query=Geylang+Serai+Market,Existing,103.8974075,1.316888094,"(1.316888094, 103.8974075)",8/3/2021,10/3/2021,7/6/2021,9/6/2021,20/9/2021,22/9/2021,6/12/2021,9/12/2021
47,"Blk 4A, Jalan Batu, Singapore 432004","Built in 1969, Blk 4A Jalan Batu comprises both a market and food section. The centre houses 52 cooked food stalls and 53 market stalls.",Jalan Batu Blk 4A (Blk 4A Jalan Batu Hawker Centre/Market),http://www.nea.gov.sg/images/default-source/Hawker-Centres-Division/resize_1267874223880.jpg,https://www.google.com/maps/search/?api=1&query=Jalan+Batu+Blk+4A+(Blk+4A+Jalan+Batu+Hawker+Centre/Market),Existing,103.8839798,1.302430034,"(1.302430034, 103.8839798)",14/1/1990,14/1/1990,7/6/2021,8/6/2021,13/9/2021,14/9/2021,6/12/2021,7/12/2021
48,"Blk 20, Ghim Moh Road, Singapore 270020","Built in 1977, the hawker centre is famous for its wide spread of offerings such as Char Kway Teow, Chicken Rice, Soya Bean Drinks etc. 72 cooked food stalls and 158 market stalls at the hawker centre serve Ghim Moh  residents daily.",Ghim Moh Road Blk 20,http://www.nea.gov.sg/images/default-source/Hawker-Centres-Division/resize_1267848628803.jpg,https://www.google.com/maps/search/?api=1&query=Ghim+Moh+Road+Blk+20,Existing,103.7882919,1.311059952,"(1.311059952, 103.7882919)",12/3/2021,16/3/2021,7/6/2021,8/6/2021,13/9/2021,14/9/2021,22/11/2021,24/11/2021
49,"505, Beach Road, Singapore 199583","Home to lock-up stalls selling army stuff, Golden Mile Food Centre is a ""must go"" place if you are looking for affordable army / camping equipment. The food section located at the first and second levels definitely does not pale in comparison. It offers well-known local and international cuisines by 111 cooked food stalls. Fanciful food selection at great prices!",Golden Mile Food Centre,http://www.nea.gov.sg/images/default-source/Hawker-Centres-Division/resize_1262155571228.jpg,https://www.google.com/maps/search/?api=1&query=Golden+Mile+Food+Centre,Existing,103.8638763,1.302873969,"(1.302873969, 103.8638763)",14/1/1990,14/1/1990,14/1/1990,14/1/1990,5/7/2021,6/7/2021,11/10/2021,14/10/2021
50,"Blk 13/14, Haig Road, Singapore 430013/430014","Built in 1977, the hawker centre at Blk 13/14 Haig Road is easily visible from Changi Road. Comprising 72 cooked food stalls and 146 market stalls, its ideal location as well as the wide selection of affordable hawker fare have attracted many residents and working professionals around the vicinity.",Haig Road Blk 13/14 (Haig Road Market and Cooked Food Centre),http://www.nea.gov.sg/images/default-source/Hawker-Centres-Division/resize_1267848993155.jpg,https://www.google.com/maps/search/?api=1&query=Haig+Road+Blk+13/14+(Haig+Road+Market+and+Cooked+Food+Centre),Existing,103.8956528,1.315189958,"(1.315189958, 103.8956528)",15/3/2021,17/3/2021,28/6/2021,30/6/2021,27/9/2021,29/9/2021,13/12/2021,16/12/2021
51,"Blk 22A/B, Havelock Road, Singapore 161022/162022","Built in 1969, the standalone hawker centre located in the Havelock area comprises 30 cooked food stalls. It was upgraded in 2007.",Havelock Road Blk 22A/B (Havelock Road Cooked Food Centre),http://www.nea.gov.sg/images/default-source/Hawker-Centres-Division/resize_1262152823428.jpg,https://www.google.com/maps/search/?api=1&query=Havelock+Road+Blk+22A/B+(Havelock+Road+Cooked+Food+Centre),Existing,103.829689,1.288040042,"(1.288040042, 103.829689)",22/3/2021,22/3/2021,21/6/2021,21/6/2021,20/9/2021,20/9/2021,20/12/2021,20/12/2021
52,"Blk 112, Jalan Bukit Merah, Singapore 160112","Situated in the mature estate of Jalan Bukit Merah, the hawker centre at Blk 112 Jalan Bukit Merah satisfies both the marketing and dining needs of the residents nearby.",Jalan Bukit Merah Blk 112 (Blk 112 Jalan Bukit Merah Market and Food Centre),http://www.nea.gov.sg/images/default-source/Hawker-Centres-Division/resize_1267874698833.jpg,https://www.google.com/maps/search/?api=1&query=Jalan+Bukit+Merah+Blk+112+(Blk+112+Jalan+Bukit+Merah+Market+and+Food+Centre),Existing,103.8260727,1.280069947,"(1.280069947, 103.8260727)",4/1/2021,4/1/2021,5/4/2021,5/4/2021,5/7/2021,5/7/2021,4/10/2021,4/10/2021
53,"Blk 44, Holland Drive, Singapore 270044","One of the last hawker centres to be built, Blk 44 Holland Drive has been serving the needs of residents since 1999. The two-storey hawker centre houses a market at the lower level and a food centre on the upper level. Conveniently located within walking distance from the Buona Vista MRT station.",Holland Drive Blk 44 (Holland Drive Market and Food Centre),http://www.nea.gov.sg/images/default-source/Hawker-Centres-Division/resize_1267849222112.jpg,https://www.google.com/maps/search/?api=1&query=Holland+Drive+Blk+44+(Holland+Drive+Market+and+Food+Centre),Existing,103.7928391,1.308189988,"(1.308189988, 103.7928391)",22/3/2021,23/3/2021,3/5/2021,6/5/2021,27/9/2021,28/9/2021,13/12/2021,14/12/2021
54,"1, Lorong Mambong, Singapore 277700","Situated right in the heart of Holland Village, the hawker centre was built in the pre-war years. One of the hawker centres with the longest history in Singapore! Surrounded by restaurants and bistros, the hawker centre remains a popular choice for patrons with its offering of affordable hawker fare. Comprises 21 cooked food stalls and 48 market stalls.",Holland Village Market and Food Centre,http://www.nea.gov.sg/images/default-source/Hawker-Centres-Division/resize_1267415509849.jpg,https://www.google.com/maps/search/?api=1&query=Holland+Village+Market+and+Food+Centre,Existing,103.7949448,1.311102033,"(1.311102033, 103.7949448)",1/3/2021,1/3/2021,31/5/2021,31/5/2021,30/8/2021,30/8/2021,27/12/2021,29/12/2021
55,"Blk 105, Hougang Ave 1, Singapore 530105","Also known as Hougang 105 Hainanese Village Centre, the hawker centre underwent a major facelift in 2005. A very popular hawker centre in the Hougang area, especially during the weekends. Serving the needs of both the residents of Lorong Ah Soo as well as the industrial area across at Defu Lane, there are currently 51 cooked food stalls and 120 market stalls within the centre.",Hougang Ave 1 Blk 105 (Hougang 105 Hainanese Village Centre),http://www.nea.gov.sg/images/default-source/Hawker-Centres-Division/resize_1259901634108.jpg,https://www.google.com/maps/search/?api=1&query=Hougang+Ave+1+Blk+105+(Hougang+105+Hainanese+Village+Centre),Existing,103.890213,1.354089975,"(1.354089975, 103.890213)",1/3/2021,2/3/2021,31/5/2021,1/6/2021,13/9/2021,14/9/2021,6/12/2021,10/12/2021
56,"Blk 209, Hougang Street 21, Singapore 530209","Conveniently situated in the heartlands of Kovan, the hawker centre at Blk 209 Hougang Street 21 is minutes away from Kovan MRT. Built in 1983, the centre houses 65 cooked food stalls and 118 market stalls. Be prepared to queue for your favourite dish at the popular cooked food stalls within the hawker centre!",Hougang Street 21 Blk 209 (Kovan Hougang Market and Food Centre),http://www.nea.gov.sg/images/default-source/Hawker-Centres-Division/resize_1267849628846.jpg,https://www.google.com/maps/search/?api=1&query=Hougang+Street+21+Blk+209+(Kovan+Hougang+Market+and+Food+Centre),Existing,103.8859253,1.359079003,"(1.359079003, 103.8859253)",8/3/2021,9/3/2021,6/6/2021,7/6/2021,2/8/2021,3/8/2021,8/11/2021,12/11/2021
57,"Blk 6, Jalan Bukit Merah, Singapore 150006","Fondly known as ABC Brickworks Market, it is within close proximity to Alexandra Food Village and IKEA. The hawker centre, which was built in 1974, is another alternative for the residents of Queenstown and Bukit Merah.  Patrons can find delicious yet affordable hawker fare at the centre.",Jalan Bukit Merah Blk 6 (ABC Brickworks Market/Food Centre),http://www.nea.gov.sg/images/default-source/Hawker-Centres-Division/resize_1267760203.jpg,https://www.google.com/maps/search/?api=1&query=Jalan+Bukit+Merah+Blk+6+(ABC+Brickworks+Market/Food+Centre),Existing,103.8081894,1.287009954,"(1.287009954, 103.8081894)",15/3/2021,16/3/2021,21/6/2021,22/6/2021,13/9/2021,14/9/2021,13/12/2021,14/12/2021
58,"Blk 1, Jalan Kukoh, Singapore 161001","Built in 1969, Blk 1 Jalan Kukoh used to consist of both a market and food section. After upgrading in 2010, the centre was converted to a food centre with 21 cooked food stalls.",Jalan Kukoh Blk 1 (Kukoh 21 Food Centre),http://www.nea.gov.sg/images/default-source/Hawker-Centres-Division/resize_1267874440744.jpg,https://www.google.com/maps/search/?api=1&query=Jalan+Kukoh+Blk+1+(Kukoh+21+Food+Centre),Existing,103.8399963,1.288319945,"(1.288319945, 103.8399963)",1/3/2021,1/3/2021,7/6/2021,7/6/2021,13/9/2021,13/9/2021,13/12/2021,13/12/2021
59,"Blk 347, Jurong East Ave 1, Singapore 600347","Located near to the PIE exit (Jurong Town Hall Road), the hawker centre at Blk 347 Jurong East Ave 1 is popular with residents living in the area. A wide variety of food and market produce is offered at the hawker centre by the 56 cooked food stalls and 169 market stalls. It was built in 1984 to cater to the dining and marketing needs of residents.",Jurong East Ave 1 Blk 347 (Yuhua Market and Hawker Centre),http://www.nea.gov.sg/images/default-source/Hawker-Centres-Division/resize_1275537901886.jpg,https://www.google.com/maps/search/?api=1&query=Jurong+East+Ave+1+Blk+347+(Yuhua+Market+and+Hawker+Centre),Existing,103.7315826,1.345360041,"(1.345360041, 103.7315826)",8/3/2021,9/3/2021,28/6/2021,29/6/2021,13/9/2021,14/9/2021,13/12/2021,14/12/2021
60,"Blk 254, Jurong East Street 24, Singapore 600254","Located near to the PIE exit (Jurong Town Hall Road), the hawker centre at Blk 254 Jurong East Street 24 serves the marketing and dining needs of residents living in Yuhua Village.  There are 60 cooked food stalls and 87 market produce stalls operating within the hawker centre. Originally built in 1983.",Jurong East Street 24 Blk 254 (Yuhua Village Market and Food Centre),http://www.nea.gov.sg/images/default-source/Hawker-Centres-Division/resize_1265167615307.jpg,https://www.google.com/maps/search/?api=1&query=Jurong+East+Street+24+Blk+254+(Yuhua+Village+Market+and+Food+Centre),Existing,103.7376862,1.343433023,"(1.343433023, 103.7376862)",22/3/2021,23/3/2021,7/6/2021,8/6/2021,27/9/2021,29/9/2021,6/12/2021,7/12/2021
61,"Blk 50, Jurong West St 61, Singapore 648202","Completed in 2017, Jurong West Hawker Centre provides residents a comfortable and clean dining environment with natural ventilation and family-friendly features such as child-friendly toilet facilities and family-friendly seating, as well as tray-return facilities at accessible locations. To ensure affordable meals for the residents, all the stalls are serving at least two items priced at $2.80 or below.",Jurong West Hawker Centre,http://www.nea.gov.sg/images/default-source/Hawker-Centres-Division/jurong-west-hawker-centre.jpg,https://www.google.com/maps/search/?api=1&query=Jurong+West+Hawker+Centre,Under Construction,103.697374,1.341223,"(1.341223, 103.697374)",14/1/1990,14/1/1990,14/1/1990,14/1/1990,14/1/1990,14/1/1990,14/1/1990,14/1/1990
62,"Blk 505, Jurong West Street 52, Singapore 640505","The hawker centre at Blk 505 Jurong West Street 52 was built in 1985.  Located in the heart of the Jurong West estate, the centre serves patrons from the nearby residential flats and schools.  Last upgraded in 2009, the centre comprises a total of 190 stalls - 60 cooked food and 130 market stalls.",Jurong West Street 52 Blk 505,http://www.nea.gov.sg/images/default-source/Hawker-Centres-Division/resize_1262155040710.jpg,https://www.google.com/maps/search/?api=1&query=Jurong+West+Street+52+Blk+505,Existing,103.7184601,1.349699974,"(1.349699974, 103.7184601)",4/1/2021,5/1/2021,3/5/2021,4/5/2021,13/9/2021,14/9/2021,6/12/2021,8/12/2021
63,"17, Old Airport Road, Singapore 397972","Located just minutes away from Blk 51 Old Airport Road, the Kallang Estate Fresh Market and Food Centre provides both dining and marketing services for Kallang residents. Built in 1959, the centre comprises 16 cooked food stalls and 78 market stalls.",Kallang Estate Fresh Market and Food Centre,http://www.nea.gov.sg/images/default-source/Hawker-Centres-Division/resize_1262155698415.jpg,https://www.google.com/maps/search/?api=1&query=Kallang+Estate+Fresh+Market+and+Food+Centre,Existing,103.8841476,1.307112455,"(1.307112455, 103.8841476)",1/3/2021,1/3/2021,21/6/2021,21/6/2021,27/9/2021,27/9/2021,27/12/2021,29/12/2021
64,"Blk 676, Woodlands Drive 71, Singapore 730676","Built in 2017, the Kampung Admiralty Hawker Centre is a communal dining space which allows patrons to feast on Singapores favourite street food while learning the cultural diversity of our local food.  The centre consists of 43 cooked food stalls.  The centre features natural ventilation, family-friendly features, such as child-friendly toilet facilities.",Kampung Admiralty Hawker Centre,http://www.nea.gov.sg/images/default-source/Hawker-Centres-Division/kampung-admiralty-hawker-centre.jpg,https://www.google.com/maps/search/?api=1&query=Kampung+Admiralty+Hawker+Centre,Existing (new),103.800735,1.440119,"(1.440119, 103.800735)",29/3/2021,30/3/2021,28/6/2021,29/6/2021,13/9/2021,14/9/2021,20/12/2021,22/12/2021
65,"Blk 84, Marine Parade Central, Singapore 440084","Located across Parkway Parade Shopping Centre, the hawker centre has been around since 1976. It is popular with patrons throughout the day. A wide variety of local food is available at the hawker centre including Char Kway Teow, Beef Noodles, Economical Rice, Desserts etc.  Comprises 55 cooked food stalls and 143 market stalls.",Marine Parade Central Blk 84 (84 Marine Parade Central Market and Food Centre),http://www.nea.gov.sg/images/default-source/Hawker-Centres-Division/resize_1267875360164.jpg,https://www.google.com/maps/search/?api=1&query=Marine+Parade+Central+Blk+84+(84+Marine+Parade+Central+Market+and+Food+Centre),Existing,103.9063873,1.302330017,"(1.302330017, 103.9063873)",8/3/2021,9/3/2021,14/6/2021,15/6/2021,27/9/2021,30/9/2021,6/12/2021,7/12/2021
66,"Blk 50A, Marine Terrace, Singapore 441050",Built in 1975 to serve the residents living within the Marine Terrace estate. The hawker centre is located just next to the Marine Parade Town Council. Comprises 24 cooked food stalls and 87 market stalls.,Marine Terrace Blk 50A (50A Marine Terrace),http://www.nea.gov.sg/images/default-source/Hawker-Centres-Division/resize_1262153165514.jpg,https://www.google.com/maps/search/?api=1&query=Marine+Terrace+Blk+50A+(50A+Marine+Terrace),Existing,103.9157867,1.305809975,"(1.305809975, 103.9157867)",15/3/2021,16/3/2021,21/6/2021,22/6/2021,13/9/2021,14/9/2021,22/11/2021,25/11/2021
67,"5, Cross Street, Singapore 048148",Due to the redevelopment of Market Street Food Centre (Golden Shoe Carpark) an interim hawker centre has been built to ensure continuity of stallholders' business and availability of affordable food options for patrons in the vicinity.  The interim centre commenced operations on 1 Aug 2017.,Market Street Interim Hawker Centre,http://www.nea.gov.sg/images/default-source/Hawker-Centres-Division/resize_1262225979894.jpg,https://www.google.com/maps/search/?api=1&query=Market+Street+Interim+Hawker+Centre,Existing,103.8488473,1.281567926,"(1.281567926, 103.8488473)",20/3/2021,20/3/2021,19/6/2021,19/6/2021,18/9/2021,18/9/2021,18/12/2021,18/12/2021
68,"Blk 20/21, Marsiling Lane, Singapore 730020/730021","Built in 1975, the hawker centre at Blk 20/21 Marsiling Road houses 52 cooked food stalls and 112 market stalls.  Upgraded in 2009.",Marsiling Lane Blk 20/21,http://www.nea.gov.sg/images/default-source/Hawker-Centres-Division/resize_1262152527264.jpg,https://www.google.com/maps/search/?api=1&query=Marsiling+Lane+Blk+20/21,Existing,103.7772598,1.443989992,"(1.443989992, 103.7772598)",15/3/2021,16/3/2021,7/6/2021,8/6/2021,13/9/2021,14/9/2021,6/12/2021,8/12/2021
69,"Blk 4,Woodlands St 12,Singapore738623","Built in 2017, and located close to the heart of Woodlands, Marsiling Mall Hawker Centre offers residents convenient access to a variety of good and affordable hawker food. This hawker centre is also situated adjacent to Woodlands Sports Centre, bringing hawker food to the doorstep of sports facility users.",Marsiling Mall Hawker Centre,http://www.nea.gov.sg/images/default-source/Hawker-Centres-Division/mmhc.jpg,https://www.google.com/maps/search/?api=1&query=Marsiling+Mall+Hawker+Centre,Existing (new),103.779881,1.433543,"(1.433543, 103.779881)",8/3/2021,8/3/2021,1/6/2021,1/6/2021,6/9/2021,6/9/2021,13/12/2021,15/12/2021
70,"1, Kadayanallur Street, Singapore 069184","Maxwell Food Centre began its roots in 1935. One of the iconic hawker centres in Singapore, the food centre now consists of 103 cooked food stalls. Popular hawker fare such as Chicken Rice, Tapioca Kueh, Porridge, Desserts and more can be found here.",Maxwell Food Centre (Kim Hua Market),http://www.nea.gov.sg/images/default-source/Hawker-Centres-Division/resize_1262155734465.jpg,https://www.google.com/maps/search/?api=1&query=Maxwell+Food+Centre+(Kim+Hua+Market),Existing,103.8444595,1.280550957,"(1.280550957, 103.8444595)",22/3/2021,22/3/2021,21/6/2021,21/6/2021,27/9/2021,29/9/2021,20/12/2021,20/12/2021
71,"Blk 159, Mei Chin Road, Singapore 140159","Built in 1970 to serve the Mei Ling estate, the hawker centre at Blk 159 Mei Chin Road was upgraded in 2009 to improve circulation space and ventilation. Comprises 47 cooked food stalls and 66 market stalls.",Mei Chin Road Blk 159 (Mei Chin Road Market),http://www.nea.gov.sg/images/default-source/Hawker-Centres-Division/resize_1262154581891.jpg,https://www.google.com/maps/search/?api=1&query=Mei+Chin+Road+Blk+159+(Mei+Chin+Road+Market),Existing,103.8029633,1.293300033,"(1.293300033, 103.8029633)",8/3/2021,9/3/2021,7/6/2021,8/6/2021,27/9/2021,28/9/2021,6/12/2021,8/12/2021
72,"Blk 32, New Market Road, Singapore 050032","Fondly known as People's Park Complex, it is located right in the heart of the bustling Chinatown. It is a favourite haunt for elderly folks to catch up and enjoy a delicious yet affordable meal.  Extremely accessible by bus or MRT. Upgraded in 2005, it has 87 cooked food stalls located on the ground floor. The second and third floors comprise HDB shops selling fabrics, fashion and home wares.",New Market Road Blk 32 (People's Park Food Centre),http://www.nea.gov.sg/images/default-source/Hawker-Centres-Division/resize_1265168123284.jpg,https://www.google.com/maps/search/?api=1&query=New+Market+Road+Blk+32+(People's+Park+Food+Centre),Existing,103.8425903,1.284870982,"(1.284870982, 103.8425903)",22/3/2021,23/3/2021,7/6/2021,8/6/2021,6/9/2021,7/9/2021,6/12/2021,7/12/2021
73,"Blk 208B, New Upper Changi Road, Singapore 462208","Completed in 2014, this new food centre replaces the hawker centre at Blk 207 Upper Changi Road.  Also know as Bedok Interchange Hawker Centre,  it houses more seating areas for diners, more parking lots at the adjacent multi-storey carpark, and high-volume, low-speed cooling fans to provide patrons a more comfortable and cooler dining experience.  The centre also has NETS cashless payment system implemented at food stalls and free wireless internet connection via Wireless@SG for the convenience of patrons.",New Upper Changi Road Blk 208B,http://www.nea.gov.sg/images/default-source/Hawker-Centres-Division/bedok-interchange-hawker-centre.jpg,https://www.google.com/maps/search/?api=1&query=New+Upper+Changi+Road+Blk+208B,Existing,103.930477,1.324629,"(1.324629, 103.930477)",29/3/2021,30/3/2021,28/6/2021,29/6/2021,27/9/2021,28/9/2021,20/12/2021,24/12/2021
74,"Blk 58, New Upper Changi Road, Singapore 461058","Comprising a market produce and cooked food section, the hawker centre at Blk 58 New Upper Changi Road was built in 1978 to serve the marketing and dining needs of patrons living in Bedok South. Especially popular during the breakfast and lunch hours.",New Upper Changi Road Blk 58,http://www.nea.gov.sg/images/default-source/Hawker-Centres-Division/resize_1262153263293.jpg,https://www.google.com/maps/search/?api=1&query=New+Upper+Changi+Road+Blk+58,Existing,103.940155,1.32516551,"(1.32516551, 103.940155)",8/3/2021,8/3/2021,7/6/2021,7/6/2021,13/9/2021,13/9/2021,6/12/2021,10/12/2021
75,"500, Clemenceau Ave North, Singapore 229495","Popular with both locals and tourists alike.  Often rated by foodies as one of the best hawker centres in Singapore, Newton Food Centre is well known for dishes like BBQ Seafood, Hokkien Mee, Po Piah, Satay, Fried Carrot Cake etc.  Extremely crowded during dinner and supper time, this is definitely a hawker centre that you must visit!  Located in the Cairnhill / Newton area and a stone's throw away from Newton MRT.",Newton Food Centre,http://www.nea.gov.sg/images/default-source/Hawker-Centres-Division/resize_1262155777485.jpg,https://www.google.com/maps/search/?api=1&query=Newton+Food+Centre,Existing,103.8397293,1.312224984,"(1.312224984, 103.8397293)",8/3/2021,9/3/2021,7/6/2021,8/6/2021,18/8/2021,20/8/2021,20/12/2021,21/12/2021
76,"861, North Bridge Road, Singapore 198783",Originally built in 1973 as a two-storey building. North Bridge Road Market was converted into a single-storey hawker centre after its upgrading in 2005. The centre now comprises 37 cooked food stalls and 82 market stalls.,North Bridge Road Market,http://www.nea.gov.sg/images/default-source/Hawker-Centres-Division/resize_1262155297184.jpg,https://www.google.com/maps/search/?api=1&query=North+Bridge+Road+Market,Existing,103.8638611,1.305847049,"(1.305847049, 103.8638611)",1/3/2021,2/3/2021,3/5/2021,3/5/2021,2/8/2021,4/8/2021,8/11/2021,8/11/2021
77,"Blk 51, Old Airport Road, Singapore 390051","The renowned Blk 51 Old Airport Road is famed for its excellent yet affordable food. Built in 1973, it consists of 168 cooked food stalls on the ground level and 54 lock-up stalls on the second level. The large number of cooked food stalls serve up an amazing array of cuisines, from local hawker fare to international food. Get thrilled by the gastronomic experience offered by the numerous stalls!",Old Airport Road Blk 51 (51 Old Airport Road Food Centre and Shopping Mall),http://www.nea.gov.sg/images/default-source/Hawker-Centres-Division/resize_1262153198645.jpg,https://www.google.com/maps/search/?api=1&query=Old+Airport+Road+Blk+51+(51+Old+Airport+Road+Food+Centre+and+Shopping+Mall),Existing,103.8858414,1.308279991,"(1.308279991, 103.8858414)",15/3/2021,18/3/2021,31/5/2021,3/6/2021,30/8/2021,2/9/2021,20/12/2021,23/12/2021
78,"1 Tampines Walk, Singapore 528523","Built in 2016, the hawker centre at Our Tampines Hub (OTH) consists of 42 cooked food stalls and allows patrons of all ages to enjoy affordable food in a pleasant dining environment.  Located at the 1st storey of OTH, the naturally ventilated hawker centre is designed to be family-friendly with features such as child-friendly toilet facilities and family-friendly seating. It is also designed with built-in tray return facilities at accessible locations to allow patrons to return their trays with ease.  Being the first 24-hour hawker centre in Tampines, it provides residents with all-day affordable dining options.",Our Tampines Hub,http://www.nea.gov.sg/images/default-source/Hawker-Centres-Division/our-tampines-hub.jpg,https://www.google.com/maps/search/?api=1&query=Our+Tampines+Hub,Existing (new),103.940231,1.352983,"(1.352983, 103.940231)",14/1/1990,14/1/1990,14/1/1990,14/1/1990,14/1/1990,14/1/1990,14/1/1990,14/1/1990
79,"121, Pasir Panjang Road, Singapore 118543","Situated along Pasir Panjang Road and near to industrial estates, the food centre comprises 45 cooked food stalls and serves a variety of hawker fare including BBQ Seafood and Zi Char. Built in 1978.",Pasir Panjang Food Centre,http://www.nea.gov.sg/images/default-source/Hawker-Centres-Division/resize_1262155813373.jpg,https://www.google.com/maps/search/?api=1&query=Pasir+Panjang+Food+Centre,Existing,103.7915573,1.275658965,"(1.275658965, 103.7915573)",1/3/2021,1/3/2021,17/5/2021,18/5/2021,23/8/2021,23/8/2021,22/11/2021,22/11/2021
80,"Blk 110, Pasir Ris Central, Singapore 519641","Completed in Jan 2018, Pasir Ris Central Hawker Centre is a centre which houses 42 cooked food stalls across two levels. On the ground floor, 20 cooked food stalls will serve a variety of local hawker fare, while on the upper floor there will be 22 cooked food stalls serving modern cuisines. Along with a family dining area with child-friendly tables and chairs, and handicap friendly access, this centre also offers cashless payments.",Pasir Ris Central Hawker Centre,http://www.nea.gov.sg/images/default-source/Hawker-Centres-Division/pasir-ris-central-hawker-centre.jpg,https://www.google.com/maps/search/?api=1&query=Pasir+Ris+Central+Hawker+Centre,Existing (new),103.951364,1.373318,"(1.373318, 103.951364)",15/2/2021,16/2/2021,3/5/2021,4/5/2021,2/8/2021,3/8/2021,8/11/2021,10/11/2021
81,"Blk 270, Queen Street, Singapore 180270","Strategically located near places of interests like the famous Guan Yin Temple and Bugis Village, the hawker centre is popular with both locals and tourists alike. A wide array of good local cuisines is served by well-known stalls operating at the hawker centre.  The hawker centre is also famous for dried seafood items and textiles, sold at the lock-up stalls withiin the market section.",Queen Street Blk 270 (Albert Centre),http://www.nea.gov.sg/images/default-source/Hawker-Centres-Division/resize_1267850253199.jpg,https://www.google.com/maps/search/?api=1&query=Queen+Street+Blk+270+(Albert+Centre),Existing,103.8541412,1.301120043,"(1.301120043, 103.8541412)",22/3/2021,23/3/2021,28/6/2021,30/6/2021,13/9/2021,14/9/2021,13/12/2021,14/12/2021
82,"Blk 79, Redhill Lane, Singapore 150079","Built in 1969, the standalone market offers a variety of fresh market produce to serve the needs of Redhill residents. The centre was upgraded in 2005 and comprises 122 market stalls.  Within walking distance from Redhill MRT.",Redhill Lane Blk 79 (Redhill Market),http://www.nea.gov.sg/images/default-source/Hawker-Centres-Division/resize_1262153664347.jpg,https://www.google.com/maps/search/?api=1&query=Redhill+Lane+Blk+79+(Redhill+Market),Existing,103.8183975,1.287909985,"(1.287909985, 103.8183975)",22/3/2021,23/3/2021,7/6/2021,8/6/2021,13/9/2021,14/9/2021,13/12/2021,14/12/2021
83,"Blk 85, Redhill Lane, Singapore 150085","Build in 1972 to complement the market next door, Blk 85 Redhill Lane is a standalone food centre comprising 96 cooked food stalls. A good variety of food can be found within the hawker centre.  Within walking distance from Redhill MRT.",Redhill Lane Blk 85 (Redhill Food Centre),http://www.nea.gov.sg/images/default-source/Hawker-Centres-Division/resize_1262153717849.jpg,https://www.google.com/maps/search/?api=1&query=Redhill+Lane+Blk+85+(Redhill+Food+Centre),Existing,103.8183975,1.287400007,"(1.287400007, 103.8183975)",22/3/2021,23/3/2021,7/6/2021,8/6/2021,13/9/2021,14/9/2021,13/12/2021,14/12/2021
84,"590, Upper Thomson Road, Singapore 574419","Built in 1974, this centre is nestled along Upper Thomson Road and offers a wide variety of food such as Fish / Seafood Soup, Char Kway Teow, Ngoh Hiang, Pasta etc.  The centre comprises 36 cooked food stalls.",Sembawang Hills Food Centre (Jalan Leban Food Centre),http://www.nea.gov.sg/images/default-source/Hawker-Centres-Division/resize_1262155861677.jpg,https://www.google.com/maps/search/?api=1&query=Sembawang+Hills+Food+Centre+(Jalan+Leban+Food+Centre),Existing,103.8290329,1.372419953,"(1.372419953, 103.8290329)",4/1/2021,6/1/2021,5/4/2021,5/4/2021,5/7/2021,5/7/2021,4/10/2021,4/10/2021
85,"49A, Serangoon Garden Way, Singapore 555945","Within walking distance from the famous Chomp Chomp Food Centre, the spacious Serangoon Garden Market is an alternative food paradise where residents satisfy their palates.  Equipped also with a market produce section, patrons can discover true gems within the centre.  Take a look around and you can't miss those stalls that are highly rated by food gurus!",Serangoon Garden Market,http://www.nea.gov.sg/images/default-source/Hawker-Centres-Division/resize_1262156095817.jpg,https://www.google.com/maps/search/?api=1&query=Serangoon+Garden+Market,Existing,103.8669815,1.363540053,"(1.363540053, 103.8669815)",14/1/1990,14/1/1990,14/6/2021,16/6/2021,13/9/2021,13/9/2021,20/12/2021,20/12/2021
86,"Blk 320, Shunfu Road, Singapore 570320","Built in 2000, the hawker centre at Blk 320 Shunfu Road is the last hawker centre to be built. Also known as Shunfu Mart, the centre houses 31 cooked food stalls and 51 market stalls.",Shunfu Road Blk 320 (Shunfu Mart),http://www.nea.gov.sg/images/default-source/Hawker-Centres-Division/resize_1259901832200.jpg,https://www.google.com/maps/search/?api=1&query=Shunfu+Road+Blk+320+(Shunfu+Mart),Existing,103.8370285,1.351819992,"(1.351819992, 103.8370285)",14/1/1990,14/1/1990,5/7/2021,5/7/2021,27/9/2021,27/9/2021,6/12/2021,6/12/2021
87,"Blk 6, Tanjong Pagar Plaza, Singapore 081006","Located near the Tanjong Pagar Plaza, the hawker centre serves some of the locals' favourite dishes such as Hainanese Chicken Rice, Curry Fish Head and Seafood Soup. Built in 1977, the centre has 52 cooked food stalls and 108 market stalls to serve the needs of the patrons.",Tanjong Pagar Plaza Blk 6 (Blk 6 Tanjong Pagar Plaza Market and Food Centre),http://www.nea.gov.sg/images/default-source/Hawker-Centres-Division/blk-6-tanjong-pagar-plaza.jpg,https://www.google.com/maps/search/?api=1&query=Tanjong+Pagar+Plaza+Blk+6+(Blk+6+Tanjong+Pagar+Plaza+Market+and+Food+Centre),Existing,103.8432312,1.276679993,"(1.276679993, 103.8432312)",20/3/2021,20/3/2021,19/6/2021,19/6/2021,11/9/2021,11/9/2021,10/12/2021,11/12/2021
88,"Blk 49, Sims Place, Singapore 380049","Also known as Sims Vista Market and Food Centre, the hawker centre is nestled within the idyllic Sims Vista estate. Originally built in 1976, the hawker centre was upgraded in 2006 to improve its physical facade and provide a more hygienic environment for both stallholders and patrons alike. 66 cooked food stalls and 78 market stalls serve patrons of the hawker centre.",Sims Place Blk 49 (Sims Vista Market and Food Centre),http://www.nea.gov.sg/images/default-source/Hawker-Centres-Division/resize_1262153128123.jpg,https://www.google.com/maps/search/?api=1&query=Sims+Place+Blk+49+(Sims+Vista+Market+and+Food+Centre),Existing,103.8793793,1.317100048,"(1.317100048, 103.8793793)",8/3/2021,9/3/2021,28/6/2021,29/6/2021,27/9/2021,28/9/2021,6/12/2021,8/12/2021
89,"Blk 335, Smith Street, Singapore 050335","Original built in 1983, Blk 335 Smith Street is also commonly known as Chinatown Complex. It is the largest hawker centre in Singapore comprising a total of 703 stalls! After upgrading in 2008, the building has been transformed into an architecture of strong Chinese influence with a modern twist. Situated in the Chinatown area, the centre now comes with better amenities and increased seating capacity. A favourite hang-out place for residents to reminisce good old days while enjoying the wide array of local dishes offered.",Smith Street Blk 335 (Chinatown Complex Market),http://www.nea.gov.sg/images/default-source/Hawker-Centres-Division/resize_1265168178798.jpg,https://www.google.com/maps/search/?api=1&query=Smith+Street+Blk+335+(Chinatown+Complex+Market),Existing,103.8428802,1.282299995,"(1.282299995, 103.8428802)",8/3/2021,10/3/2021,28/6/2021,29/6/2021,30/8/2021,31/8/2021,15/11/2021,16/11/2021
90,"3, Yung Sheng Road, Singapore 618499","Taman Jurong Market and Food Centre is an amalgamation of  3 hawker centres, namely Corporation Drive Market, Yung Sheng Food Centre and Corporation Drive Food Centre. Comprises 123 cooked food stalls and 57 market stalls.",Taman Jurong Market and Food Centre,http://www.nea.gov.sg/images/default-source/Hawker-Centres-Division/resize_1262156147897.jpg,https://www.google.com/maps/search/?api=1&query=Taman+Jurong+Market+and+Food+Centre,Existing,103.7216187,1.334681034,"(1.334681034, 103.7216187)",1/3/2021,2/3/2021,17/5/2021,18/5/2021,16/8/2021,18/8/2021,22/11/2021,23/11/2021
91,"Blk 137, Tampines Street 11, Singapore 521137","Blk 137 Tampines Street 11 is the only hawker centre in the Tampines area. Also commonly known as Tampines Round Market due to the unique circular shape of the hawker centre, it was built in 1982 to fulfill the marketing and dining needs of the resident in Tampines Town. Comprises 45 cooked food stalls and 99 market stalls. The hawker centre was voted by readers of Shin Min Daily as their favourite hawker centre for 2 years running (2008-2009) in the City Hawker Food Hunt contest.",Tampines Street 11 Blk 137 (Tampines Round Market and Food Centre),http://www.nea.gov.sg/images/default-source/Hawker-Centres-Division/resize_1262154543785.jpg,https://www.google.com/maps/search/?api=1&query=Tampines+Street+11+Blk+137+(Tampines+Round+Market+and+Food+Centre),Existing,103.9445953,1.345595956,"(1.345595956, 103.9445953)",22/3/2021,24/3/2021,28/6/2021,30/6/2021,27/9/2021,30/9/2021,13/12/2021,14/12/2021
92,"48A, Tanglin Halt Road, Singapore 148813","Built way back in 1964, Tanglin Halt Market is an iconic hawker centre within the Tanglin Halt estate. The hawker centre was given a facelift in 2003, and currently comprises 28 cooked food stalls and 89 market stalls.",Tanglin Halt Market,http://www.nea.gov.sg/images/default-source/Hawker-Centres-Division/resize_1262156211794.jpg,https://www.google.com/maps/search/?api=1&query=Tanglin+Halt+Market,Existing,103.7976837,1.300850034,"(1.300850034, 103.7976837)",8/3/2021,8/3/2021,7/6/2021,7/6/2021,13/9/2021,13/9/2021,6/12/2021,8/12/2021
93,"Blk 37A, Teban Garden Road, Singapore 601037","Located near Pandan Reservoir, the hawker centre comprises 28 cooked food stalls and 52 market stalls.  Built in 1976 to serve residents staying nearby.",Teban Gardens Road Blk 37A (Teban Gardens Market and Food Centre),http://www.nea.gov.sg/images/default-source/Hawker-Centres-Division/resize_1262153022672.jpg,https://www.google.com/maps/search/?api=1&query=Teban+Gardens+Road+Blk+37A+(Teban+Gardens+Market+and+Food+Centre),Existing,103.7420807,1.320517302,"(1.320517302, 103.7420807)",22/2/2021,23/2/2021,17/5/2021,18/5/2021,2/8/2021,3/8/2021,13/11/2021,15/11/2021
94,"Blk 11, Telok Blangah Crescent, Singapore 090011","The hawker centre was built in 1974 to serve the dining and marketing needs of residents living in the Telok Blangah area.  After its facelift in 2009, the upgraded centre boasts enhanced features such as ramps and wider circulation spaces for the physically challenged and elderly patrons.",Telok Blangah Crescent Blk 11 (11 Telok Blangah Crescent Market and Food Centre),http://www.nea.gov.sg/images/default-source/Hawker-Centres-Division/resize_1267876741836.gif,https://www.google.com/maps/search/?api=1&query=Telok+Blangah+Crescent+Blk+11+(11+Telok+Blangah+Crescent+Market+and+Food+Centre),Existing,103.8187332,1.277439952,"(1.277439952, 103.8187332)",29/3/2021,30/3/2021,31/5/2021,1/6/2021,13/9/2021,14/9/2021,27/12/2021,29/12/2021
95,"Blk 79, Telok Blangah Drive, Singapore 100079","Situated directly opposite the Telok Blangah Community Centre, the hawker centre is a convenient location where residents of Telok Blangah can get to enjoy palatable local cuisines at affordable rates from the 40 cooked food stalls.",Telok Blangah Drive Blk 79 (Telok Blangah Food Centre),http://www.nea.gov.sg/images/default-source/Hawker-Centres-Division/resize_1262153497855.jpg,https://www.google.com/maps/search/?api=1&query=Telok+Blangah+Drive+Blk+79+(Telok+Blangah+Food+Centre),Existing,103.8076782,1.27342999,"(1.27342999, 103.8076782)",22/3/2021,22/3/2021,28/6/2021,29/6/2021,27/9/2021,27/9/2021,6/12/2021,6/12/2021
96,"Blk 82, Telok Blangah Drive, Singapore 100082","Built in 1972, the standalone market at Blk 82 Telok Blangah Drive offers a variety of fresh produce where residents can fulfill their marketing needs. Comprises 144 market stalls.",Telok Blangah Drive Blk 82 (Telok Blangah Market),http://www.nea.gov.sg/images/default-source/Hawker-Centres-Division/resize_1262153608307.jpg,https://www.google.com/maps/search/?api=1&query=Telok+Blangah+Drive+Blk+82+(Telok+Blangah+Market),Existing,103.8079987,1.273980021,"(1.273980021, 103.8079987)",22/3/2021,22/3/2021,28/6/2021,29/6/2021,27/9/2021,27/9/2021,6/12/2021,6/12/2021
97,"Blk 36, Telok Blangah Rise, Singapore 090036","Located near the scenic Mount Faber Park, the hawker centre has been serving the dining and marketing needs of residents in the vicinity since the 1970s.",Telok Blangah Rise Blk 36 (Telok Blangah Rise Market),http://www.nea.gov.sg/images/default-source/Hawker-Centres-Division/resize_1267858653663.jpg,https://www.google.com/maps/search/?api=1&query=Telok+Blangah+Rise+Blk+36+(Telok+Blangah+Rise+Market),Existing,103.8221283,1.272660017,"(1.272660017, 103.8221283)",4/1/2021,5/1/2021,19/4/2021,19/4/2021,12/7/2021,12/7/2021,11/10/2021,11/10/2021
98,"30, Seng Poh Road, Singapore 168898","Located in one of the oldest and most charming neighbourhoods, Tiong Bahru Market was built in 1950 as a single-storey centre.  The centre merged with Blk 84 and 84A Lim Liak Street during the upgrading in 2006, and was converted into a three-storey building: market stalls on the ground floor, cooked food stalls on the second floor and a carpark on the third. It is the fourth largest hawker centre in Singapore with 259 market stalls and 83 cooked food stalls! Well-known for the many popular stalls within the centre.",Tiong Bahru Market,http://www.nea.gov.sg/images/default-source/Hawker-Centres-Division/resize_1262156378375.jpg,https://www.google.com/maps/search/?api=1&query=Tiong+Bahru+Market,Existing,103.832428,1.284682989,"(1.284682989, 103.832428)",1/3/2021,2/3/2021,17/5/2021,17/5/2021,2/8/2021,2/8/2021,29/11/2021,29/11/2021
99,"Blk 127, Lorong 1 Toa Payoh, Singapore 310127","Built in 1969, the two-storey hawker centre comprises 40 cooked food stalls and 108 market stalls. Well-known for hawker fare such as Chicken Rice, Hokkien Mee etc, the hawker centre serves both the dining and marketing needs of Toa Payoh residents.",Toa Payoh Lorong 1 Blk 127 (Toa Payoh West Market and Food Court),http://www.nea.gov.sg/images/default-source/Hawker-Centres-Division/resize_1262154499803.jpg,https://www.google.com/maps/search/?api=1&query=Toa+Payoh+Lorong+1+Blk+127+(Toa+Payoh+West+Market+and+Food+Court),Existing,103.8447876,1.338160038,"(1.338160038, 103.8447876)",22/3/2021,22/3/2021,28/5/2021,1/6/2021,4/10/2021,4/10/2021,27/12/2021,27/12/2021
100,"Blk 74, Lorong 4 Toa Payoh, Singapore 310074","Built in 1968, the hawker centre at Blk 74 Lorong 4 Toa Payoh comprises 10 cooked food stalls and 80 market stalls. Located near to Toa Payoh central and HDB Hub.",Toa Payoh Lorong 4 Blk 74 (Toa Payoh Vista Market),http://www.nea.gov.sg/images/default-source/Hawker-Centres-Division/resize_1262226848493.jpg,https://www.google.com/maps/search/?api=1&query=Toa+Payoh+Lorong+4+Blk+74+(Toa+Payoh+Vista+Market),Existing,103.8520584,1.334619999,"(1.334619999, 103.8520584)",22/2/2021,22/2/2021,5/4/2021,5/4/2021,19/7/2021,19/7/2021,8/11/2021,11/11/2021
101,"Blk 93, Lorong 4 Toa Payoh, Singapore 310093","Built in 1967, the hawker centre at Blk 93 Lorong 4 Toa Payoh comprises 28 cooked food stalls and 32 market stalls. Originally a double-storey building, the centre was converted to a single-storey one after upgrading in 2009.",Toa Payoh Lorong 4 Blk 93,http://www.nea.gov.sg/images/default-source/Hawker-Centres-Division/resize_1262154305312.jpg,https://www.google.com/maps/search/?api=1&query=Toa+Payoh+Lorong+4+Blk+93,Existing,103.8495712,1.338539958,"(1.338539958, 103.8495712)",15/3/2021,15/3/2021,31/5/2021,31/5/2021,27/9/2021,27/9/2021,6/12/2021,8/12/2021
102,"Blk 75, Lorong 5 Toa Payoh, Singapore 310075","Built in 1968, this standalone food centre at Blk 75 Lorong 5 Toa Payoh comprises 36 cooked food stalls.",Toa Payoh Lorong 5 Blk 75,http://www.nea.gov.sg/images/default-source/Hawker-Centres-Division/resize_1267878144152.jpg,https://www.google.com/maps/search/?api=1&query=Toa+Payoh+Lorong+5+Blk+75,Existing,103.8529968,1.336099982,"(1.336099982, 103.8529968)",1/3/2021,1/3/2021,17/5/2021,19/5/2021,16/8/2021,16/8/2021,22/11/2021,22/11/2021
103,"Blk 22, Lorong 7 Toa Payoh, Singapore 310022","Built in 1970, the hawker centre at Blk 22 Lorong 7 Toa Payoh serves the Kim Keat residents and nearby industrial parks. There are 61 cooked food stalls and 59 market stalls in the hawker centre.  Be pampered by delicious hawker fare such as Oyster Omelette, Fishball Noodles, Zi Char etc!",Toa Payoh Lorong 7 Blk 22 (Kim Keat Palm Market and Food Centre),http://www.nea.gov.sg/images/default-source/Hawker-Centres-Division/resize_1265168256123.jpg,https://www.google.com/maps/search/?api=1&query=Toa+Payoh+Lorong+7+Blk+22+(Kim+Keat+Palm+Market+and+Food+Centre),Existing,103.8570633,1.335289955,"(1.335289955, 103.8570633)",8/3/2021,9/3/2021,7/6/2021,8/6/2021,13/9/2021,14/9/2021,13/12/2021,14/12/2021
104,"Blk 210, Lorong 8 Toa Payoh, Singapore 310210","Built in 1974, this hawker centre houses 80 cooked food stalls and 77 market stalls. One of the largest hawker centres in the Toa Payoh vicinity.",Toa Payoh Lorong 8 Blk 210,http://www.nea.gov.sg/images/default-source/Hawker-Centres-Division/resize_1267876959422.jpg,https://www.google.com/maps/search/?api=1&query=Toa+Payoh+Lorong+8+Blk+210,Existing,103.8544617,1.340330005,"(1.340330005, 103.8544617)",4/1/2021,5/1/2021,19/4/2021,20/4/2021,5/7/2021,6/7/2021,25/10/2021,27/10/2021
105,"Blk 17, Upper Boon Keng Road, Singapore 380017","Upgraded in 2009, the hawker centre at Blk 17 Upper Boon Keng comprises 84 cooked food stalls and 60 market stalls. The hawker centre serves the nearby residential and industrial estates.",Upper Boon Keng Road Blk 17 (Blk 17 Upper Boon Keng Market and Food Centre),http://www.nea.gov.sg/images/default-source/Hawker-Centres-Division/resize_1262226056435.jpg,https://www.google.com/maps/search/?api=1&query=Upper+Boon+Keng+Road+Blk+17+(Blk+17+Upper+Boon+Keng+Market+and+Food+Centre),Existing,103.8716812,1.315089941,"(1.315089941, 103.8716812)",22/3/2021,23/3/2021,21/6/2021,22/6/2021,13/9/2021,14/9/2021,29/11/2021,1/12/2021
106,"Blk 531A, Upper Cross Street, Singapore 051531","Also known as Hong Lim Food Centre, the hawker centre is famous for dishes such as Bak Ku Teh, Crayfish Hor Fun, Curry Chicken Noodles, Fish Head Bee Hoon etc. Expect to see long queues at different stalls, especially during lunch hours. Apart from the 103 cooked food stalls, the hawker centre also has 40 market stalls to serve the needs of the residents in the vicinity.",Upper Cross Street Blk 531A (Hong Lim Food Centre and Market),http://www.nea.gov.sg/images/default-source/Hawker-Centres-Division/resize_1267878882405.jpg,https://www.google.com/maps/search/?api=1&query=Upper+Cross+Street+Blk+531A+(Hong+Lim+Food+Centre+and+Market),Existing,103.8458633,1.284469962,"(1.284469962, 103.8458633)",22/3/2021,23/3/2021,21/6/2021,22/6/2021,27/9/2021,28/9/2021,27/12/2021,29/12/2021
107,"Blk 502, West Coast Drive, Singapore 120502","Also known as Ayer Rajah Market, the standalone market is located next to Ayer Rajah Food Centre. One of the last few hawker centres built, construction was completed in 1995 to complement Ayer Rajah Food Centre. There are 68 market stalls at the market to serve the West Coast area.",West Coast Drive Blk 502 (Ayer Rajah Market),http://www.nea.gov.sg/images/default-source/Hawker-Centres-Division/resize_1265168297394.jpg,https://www.google.com/maps/search/?api=1&query=West+Coast+Drive+Blk+502+(Ayer+Rajah+Market),Existing,103.7591019,1.311959982,"(1.311959982, 103.7591019)",15/3/2021,15/3/2021,14/6/2021,14/6/2021,13/9/2021,13/9/2021,13/12/2021,14/12/2021
108,"Blk 503, West Coast Drive, Singapore 120503","Also known as Ayer Rajah Food Centre, the standalone food centre was originally built in 1979.  The centre is located next to Ayer Rajah Market and currently houses 80 cooked food stalls to serve the West Coast area.",West Coast Drive Blk 503 (Ayer Rajah Food Centre),http://www.nea.gov.sg/images/default-source/Hawker-Centres-Division/resize_1265168322420.jpg,https://www.google.com/maps/search/?api=1&query=West+Coast+Drive+Blk+503+(Ayer+Rajah+Food+Centre),Existing,103.7598038,1.311869979,"(1.311869979, 103.7598038)",15/3/2021,16/3/2021,14/6/2021,15/6/2021,13/9/2021,14/9/2021,13/12/2021,16/12/2021
109,"Blk 90, Whampoa Drive, Singapore 320090","Known also as Whampoa Drive Makan Place, this is one hawker centre in Singapore which has become inceasingly famous over the years. Patrons can easily find popular stalls serving up excellent dishes to satisfy their palate. Be prepared to wait during peak hours as the premise is packed with diners!",Whampoa Drive Blk 90 (Whampoa Drive Makan Place/Whampoa Food Centre),http://www.nea.gov.sg/images/default-source/Hawker-Centres-Division/resize_1262154207158.jpg,https://www.google.com/maps/search/?api=1&query=Whampoa+Drive+Blk+90+(Whampoa+Drive+Makan+Place/Whampoa+Food+Centre),Existing,103.8550415,1.323140025,"(1.323140025, 103.8550415)",16/3/2021,16/3/2021,22/6/2021,22/6/2021,27/9/2021,29/9/2021,14/12/2021,14/12/2021
110,"Blk 91/92, Whampoa Drive, Singapore 320091/320092","Known also as Whampoa Drive Makan Place, this is one hawker centre in Singapore which has become inceasingly famous over the years. Patrons can easily find popular stalls serving up excellent dishes to satisfy their palate. Be prepared to wait during peak hours as the premise is packed with diners!",Whampoa Drive Blk 91/92 (Whampoa Drive Makan Place/Whampoa Market),http://www.nea.gov.sg/images/default-source/Hawker-Centres-Division/resize_1262154257763.jpg,https://www.google.com/maps/search/?api=1&query=Whampoa+Drive+Blk+91/92+(Whampoa+Drive+Makan+Place/Whampoa+Market),Existing,103.8541336,1.323490024,"(1.323490024, 103.8541336)",15/3/2021,15/3/2021,21/6/2021,21/6/2021,13/9/2021,14/9/2021,13/12/2021,13/12/2021
111,"Blk 51, Yishun Avenue 11, Singapore 768867","Built in 2017, the hawker centre at Yishun Park consists of 45 cooked food stalls and allows patrons of all ages to enjoy affordable food in a pleasant dining environment.  The centre features natural ventilation, family-friendly features, such as child-friendly toilet facilities and family-friendly seating, and built-in tray-return facilities at accessible locations.",Yishun Park Hawker Centre,http://www.nea.gov.sg/images/default-source/Hawker-Centres-Division/yishun-hawker-centre.jpg,https://www.google.com/maps/search/?api=1&query=Yishun+Park+Hawker+Centre,Existing (new),103.844992,1.424911,"(1.424911, 103.844992)",8/3/2021,9/3/2021,7/6/2021,8/6/2021,6/9/2021,8/9/2021,6/12/2021,7/12/2021
112,"Blk 104/105, Yishun Ring Road, Singapore 760104/760105","Built in 1984, the hawker centre comprises 56 cooked food stalls and 123 market stalls. Residents of Chong Pang patronise the centre for its wide selection of local cuisines.",Yishun Ring Road Blk 104/105 (Chong Pang Market and Food Centre),http://www.nea.gov.sg/images/default-source/Hawker-Centres-Division/resize_1267438077554.jpg,https://www.google.com/maps/search/?api=1&query=Yishun+Ring+Road+Blk+104/105+(Chong+Pang+Market+and+Food+Centre),Existing,103.8280716,1.43165803,"(1.43165803, 103.8280716)",1/3/2021,2/3/2021,17/5/2021,18/5/2021,27/9/2021,28/9/2021,27/12/2021,30/12/2021
113,"70, Zion Road, Singapore 247792","Located opposite Great World City, Zion Riverside Food Centre boasts a huge reputation even with its relatively small footprint of 32 cooked food stalls. Built since 1976, patrons can find a variety of good food offerings at the centre. Popular with both locals and tourists alike.",Zion Riverside Food Centre,http://www.nea.gov.sg/images/default-source/Hawker-Centres-Division/resize_1267879560483.jpg,https://www.google.com/maps/search/?api=1&query=Zion+Riverside+Food+Centre,Existing,103.8311844,1.29234004,"(1.29234004, 103.8311844)",14/1/1990,14/1/1990,24/5/2021,25/5/2021,25/8/2021,26/8/2021,23/11/2021,24/11/2021
